CCSDS_OMM_VERS = 2.0
CREATION_DATE  = 
ORIGINATOR     = 

OBJECT_NAME    = STARLINK-36959
OBJECT_ID      = 2026-041W
CENTER_NAME    = EARTH
REF_FRAME      = TEME
TIME_SYSTEM    = UTC
MEAN_ELEMENT_THEORY = SGP/SGP4

EPOCH          = 2026-03-15T14:00:01.999872
MEAN_MOTION    = 15.80867006
ECCENTRICITY   = .00020963
INCLINATION    = 53.1588
RA_OF_ASC_NODE = 32.4285
ARG_OF_PERICENTER = 59.7254
MEAN_ANOMALY   = 268.7983

EPHEMERIS_TYPE = 0
CLASSIFICATION_TYPE = U
NORAD_CAT_ID   = 68060
ELEMENT_SET_NO = 999
REV_AT_EPOCH   = 332
BSTAR          = .16016262E-3
MEAN_MOTION_DOT = .31018E-3
MEAN_MOTION_DDOT = 0

CCSDS_OMM_VERS = 2.0
CREATION_DATE  = 
ORIGINATOR     = 

OBJECT_NAME    = STARLINK-36915
OBJECT_ID      = 2026-041X
CENTER_NAME    = EARTH
REF_FRAME      = TEME
TIME_SYSTEM    = UTC
MEAN_ELEMENT_THEORY = SGP/SGP4

EPOCH          = 2026-03-15T14:00:01.999872
MEAN_MOTION    = 15.80835795
ECCENTRICITY   = .00014382
INCLINATION    = 53.1590
RA_OF_ASC_NODE = 32.4195
ARG_OF_PERICENTER = 135.7432
MEAN_ANOMALY   = 197.0593

EPHEMERIS_TYPE = 0
CLASSIFICATION_TYPE = U
NORAD_CAT_ID   = 68061
ELEMENT_SET_NO = 999
REV_AT_EPOCH   = 332
BSTAR          = .56794562E-3
MEAN_MOTION_DOT = .112675E-2
MEAN_MOTION_DDOT = 0

CCSDS_OMM_VERS = 2.0
CREATION_DATE  = 
ORIGINATOR     = 

OBJECT_NAME    = STARLINK-36952
OBJECT_ID      = 2026-041Y
CENTER_NAME    = EARTH
REF_FRAME      = TEME
TIME_SYSTEM    = UTC
MEAN_ELEMENT_THEORY = SGP/SGP4

EPOCH          = 2026-03-15T14:00:01.999872
MEAN_MOTION    = 15.76488956
ECCENTRICITY   = .00012949
INCLINATION    = 53.1589
RA_OF_ASC_NODE = 32.4275
ARG_OF_PERICENTER = 108.3983
MEAN_ANOMALY   = 220.8967

EPHEMERIS_TYPE = 0
CLASSIFICATION_TYPE = U
NORAD_CAT_ID   = 68062
ELEMENT_SET_NO = 999
REV_AT_EPOCH   = 332
BSTAR          = -.10964985E-1
MEAN_MOTION_DOT = -.1555188E-1
MEAN_MOTION_DDOT = 0

CCSDS_OMM_VERS = 2.0
CREATION_DATE  = 
ORIGINATOR     = 

OBJECT_NAME    = STARLINK-37000
OBJECT_ID      = 2026-041Z
CENTER_NAME    = EARTH
REF_FRAME      = TEME
TIME_SYSTEM    = UTC
MEAN_ELEMENT_THEORY = SGP/SGP4

EPOCH          = 2026-03-15T14:00:01.999872
MEAN_MOTION    = 15.80848654
ECCENTRICITY   = .00009758
INCLINATION    = 53.1591
RA_OF_ASC_NODE = 32.4020
ARG_OF_PERICENTER = 87.2713
MEAN_ANOMALY   = 254.0825

EPHEMERIS_TYPE = 0
CLASSIFICATION_TYPE = U
NORAD_CAT_ID   = 68063
ELEMENT_SET_NO = 999
REV_AT_EPOCH   = 332
BSTAR          = .46191459E-3
MEAN_MOTION_DOT = .91334E-3
MEAN_MOTION_DDOT = 0

CCSDS_OMM_VERS = 2.0
CREATION_DATE  = 
ORIGINATOR     = 

OBJECT_NAME    = STARLINK-36996
OBJECT_ID      = 2026-041AA
CENTER_NAME    = EARTH
REF_FRAME      = TEME
TIME_SYSTEM    = UTC
MEAN_ELEMENT_THEORY = SGP/SGP4

EPOCH          = 2026-03-15T14:00:01.999872
MEAN_MOTION    = 15.80847084
ECCENTRICITY   = .00010486
INCLINATION    = 53.1592
RA_OF_ASC_NODE = 32.3929
ARG_OF_PERICENTER = 50.8929
MEAN_ANOMALY   = 294.7390

EPHEMERIS_TYPE = 0
CLASSIFICATION_TYPE = U
NORAD_CAT_ID   = 68064
ELEMENT_SET_NO = 999
REV_AT_EPOCH   = 332
BSTAR          = .5918115E-3
MEAN_MOTION_DOT = .117566E-2
MEAN_MOTION_DDOT = 0

CCSDS_OMM_VERS = 2.0
CREATION_DATE  = 
ORIGINATOR     = 

OBJECT_NAME    = STARLINK-36836
OBJECT_ID      = 2026-041AB
CENTER_NAME    = EARTH
REF_FRAME      = TEME
TIME_SYSTEM    = UTC
MEAN_ELEMENT_THEORY = SGP/SGP4

EPOCH          = 2026-03-15T14:00:01.999872
MEAN_MOTION    = 15.80809235
ECCENTRICITY   = .00011937
INCLINATION    = 53.1589
RA_OF_ASC_NODE = 32.3751
ARG_OF_PERICENTER = 100.4831
MEAN_ANOMALY   = 253.6953

EPHEMERIS_TYPE = 0
CLASSIFICATION_TYPE = U
NORAD_CAT_ID   = 68065
ELEMENT_SET_NO = 999
REV_AT_EPOCH   = 332
BSTAR          = .85001228E-3
MEAN_MOTION_DOT = .169905E-2
MEAN_MOTION_DDOT = 0

CCSDS_OMM_VERS = 2.0
CREATION_DATE  = 
ORIGINATOR     = 

OBJECT_NAME    = STARLINK-36976
OBJECT_ID      = 2026-041AC
CENTER_NAME    = EARTH
REF_FRAME      = TEME
TIME_SYSTEM    = UTC
MEAN_ELEMENT_THEORY = SGP/SGP4

EPOCH          = 2026-03-15T14:00:01.999872
MEAN_MOTION    = 15.80940001
ECCENTRICITY   = .00012776
INCLINATION    = 53.1590
RA_OF_ASC_NODE = 32.3663
ARG_OF_PERICENTER = 100.1644
MEAN_ANOMALY   = 258.2482

EPHEMERIS_TYPE = 0
CLASSIFICATION_TYPE = U
NORAD_CAT_ID   = 68066
ELEMENT_SET_NO = 999
REV_AT_EPOCH   = 332
BSTAR          = -.82260655E-3
MEAN_MOTION_DOT = -.160575E-2
MEAN_MOTION_DDOT = 0

CCSDS_OMM_VERS = 2.0
CREATION_DATE  = 
ORIGINATOR     = 

OBJECT_NAME    = STARLINK-36929
OBJECT_ID      = 2026-041AD
CENTER_NAME    = EARTH
REF_FRAME      = TEME
TIME_SYSTEM    = UTC
MEAN_ELEMENT_THEORY = SGP/SGP4

EPOCH          = 2026-03-15T14:00:01.999872
MEAN_MOTION    = 15.79323702
ECCENTRICITY   = .00007688
INCLINATION    = 53.1591
RA_OF_ASC_NODE = 32.3860
ARG_OF_PERICENTER = 94.0917
MEAN_ANOMALY   = 254.7246

EPHEMERIS_TYPE = 0
CLASSIFICATION_TYPE = U
NORAD_CAT_ID   = 68067
ELEMENT_SET_NO = 999
REV_AT_EPOCH   = 332
BSTAR          = -.12355204E-1
MEAN_MOTION_DOT = -.1969915E-1
MEAN_MOTION_DDOT = 0

CCSDS_OMM_VERS = 2.0
CREATION_DATE  = 
ORIGINATOR     = 

OBJECT_NAME    = STARLINK-36990
OBJECT_ID      = 2026-041AE
CENTER_NAME    = EARTH
REF_FRAME      = TEME
TIME_SYSTEM    = UTC
MEAN_ELEMENT_THEORY = SGP/SGP4

EPOCH          = 2026-03-15T14:00:01.999872
MEAN_MOTION    = 15.80892886
ECCENTRICITY   = .0000739
INCLINATION    = 53.1590
RA_OF_ASC_NODE = 32.3570
ARG_OF_PERICENTER = 109.3392
MEAN_ANOMALY   = 253.3615

EPHEMERIS_TYPE = 0
CLASSIFICATION_TYPE = U
NORAD_CAT_ID   = 68068
ELEMENT_SET_NO = 999
REV_AT_EPOCH   = 332
BSTAR          = .11144853E-3
MEAN_MOTION_DOT = .21372E-3
MEAN_MOTION_DDOT = 0

CCSDS_OMM_VERS = 2.0
CREATION_DATE  = 
ORIGINATOR     = 

OBJECT_NAME    = STARLINK-36766
OBJECT_ID      = 2026-042A
CENTER_NAME    = EARTH
REF_FRAME      = TEME
TIME_SYSTEM    = UTC
MEAN_ELEMENT_THEORY = SGP/SGP4

EPOCH          = 2026-03-15T14:00:01.999872
MEAN_MOTION    = 15.84534180
ECCENTRICITY   = .00010755
INCLINATION    = 53.1598
RA_OF_ASC_NODE = 165.2594
ARG_OF_PERICENTER = 50.3769
MEAN_ANOMALY   = 346.1139

EPHEMERIS_TYPE = 0
CLASSIFICATION_TYPE = U
NORAD_CAT_ID   = 68069
ELEMENT_SET_NO = 999
REV_AT_EPOCH   = 298
BSTAR          = -.70728808E-2
MEAN_MOTION_DOT = -.1469763E-1
MEAN_MOTION_DDOT = 0

CCSDS_OMM_VERS = 2.0
CREATION_DATE  = 
ORIGINATOR     = 

OBJECT_NAME    = STARLINK-36823
OBJECT_ID      = 2026-042B
CENTER_NAME    = EARTH
REF_FRAME      = TEME
TIME_SYSTEM    = UTC
MEAN_ELEMENT_THEORY = SGP/SGP4

EPOCH          = 2026-03-15T14:00:01.999872
MEAN_MOTION    = 15.84640347
ECCENTRICITY   = .00009236
INCLINATION    = 53.1593
RA_OF_ASC_NODE = 165.2511
ARG_OF_PERICENTER = 70.8686
MEAN_ANOMALY   = 329.4731

EPHEMERIS_TYPE = 0
CLASSIFICATION_TYPE = U
NORAD_CAT_ID   = 68070
ELEMENT_SET_NO = 999
REV_AT_EPOCH   = 298
BSTAR          = -.70582999E-2
MEAN_MOTION_DOT = -.1473676E-1
MEAN_MOTION_DDOT = 0

CCSDS_OMM_VERS = 2.0
CREATION_DATE  = 
ORIGINATOR     = 

OBJECT_NAME    = STARLINK-36970
OBJECT_ID      = 2026-042C
CENTER_NAME    = EARTH
REF_FRAME      = TEME
TIME_SYSTEM    = UTC
MEAN_ELEMENT_THEORY = SGP/SGP4

EPOCH          = 2026-03-15T14:00:01.999872
MEAN_MOTION    = 15.84860445
ECCENTRICITY   = .00009058
INCLINATION    = 53.1599
RA_OF_ASC_NODE = 165.2357
ARG_OF_PERICENTER = 69.0391
MEAN_ANOMALY   = 338.9237

EPHEMERIS_TYPE = 0
CLASSIFICATION_TYPE = U
NORAD_CAT_ID   = 68071
ELEMENT_SET_NO = 999
REV_AT_EPOCH   = 299
BSTAR          = -.70050222E-2
MEAN_MOTION_DOT = -.1477724E-1
MEAN_MOTION_DDOT = 0

