STARLINK-36959          
1 68060U 26041W   26074.58335648  .00031018  00000+0  16016-3 0  9993
2 68060  53.1588  32.4285 0002096  59.7254 268.7983 15.80867006  3327
STARLINK-36915          
1 68061U 26041X   26074.58335648  .00112675  00000+0  56795-3 0  9991
2 68061  53.1590  32.4195 0001438 135.7432 197.0593 15.80835795  3324
STARLINK-36952          
1 68062U 26041Y   26074.58335648 -.01555188  00000+0 -10965-1 0  9992
2 68062  53.1589  32.4275 0001294 108.3983 220.8967 15.76488956  3327
STARLINK-37000          
1 68063U 26041Z   26074.58335648  .00091334  00000+0  46191-3 0  9990
2 68063  53.1591  32.4020 0000975  87.2713 254.0825 15.80848654  3322
STARLINK-36996          
1 68064U 26041AA  26074.58335648  .00117566  00000+0  59181-3 0  9990
2 68064  53.1592  32.3929 0001048  50.8929 294.7390 15.80847084  3322
STARLINK-36836          
1 68065U 26041AB  26074.58335648  .00169905  00000+0  85001-3 0  9995
2 68065  53.1589  32.3751 0001193 100.4831 253.6953 15.80809235  3322
STARLINK-36976          
1 68066U 26041AC  26074.58335648 -.00160575  00000+0 -82261-3 0  9997
2 68066  53.1590  32.3663 0001277 100.1644 258.2482 15.80940001  3324
STARLINK-36929          
1 68067U 26041AD  26074.58335648 -.01969915  00000+0 -12355-1 0  9999
2 68067  53.1591  32.3860 0000768  94.0917 254.7246 15.79323702  3323
STARLINK-36990          
1 68068U 26041AE  26074.58335648  .00021372  00000+0  11145-3 0  9991
2 68068  53.1590  32.3570 0000739 109.3392 253.3615 15.80892886  3327
STARLINK-36766          
1 68069U 26042A   26074.58335648 -.01469763  00000+0 -70729-2 0  9998
2 68069  53.1598 165.2594 0001075  50.3769 346.1139 15.84534180  2982
STARLINK-36823          
1 68070U 26042B   26074.58335648 -.01473676  00000+0 -70583-2 0  9996
2 68070  53.1593 165.2511 0000923  70.8686 329.4731 15.84640347  2989
STARLINK-36970          
1 68071U 26042C   26074.58335648 -.01477724  00000+0 -70050-2 0  9994
2 68071  53.1599 165.2357 0000905  69.0391 338.9237 15.84860445  2997
